[{"OBJECT_NAME":"STARLINK-35745","OBJECT_ID":"2025-247G","EPOCH":"2026-03-09T15:18:34.465824","MEAN_MOTION":15.30194771,"ECCENTRICITY":0.0001112,"INCLINATION":53.1585,"RA_OF_ASC_NODE":191.8333,"ARG_OF_PERICENTER":68.6478,"MEAN_ANOMALY":291.4642,"EPHEMERIS_TYPE":0,"CLASSIFICATION_TYPE":"U","NORAD_CAT_ID":66271,"ELEMENT_SET_NO":999,"REV_AT_EPOCH":2107,"BSTAR":0.0011911,"MEAN_MOTION_DOT":0.00035079,"MEAN_MOTION_DDOT":0},{"OBJECT_NAME":"TRANSPORTER-1 OBJECT AA","OBJECT_ID":"2021-006AA","EPOCH":"2026-03-09T22:58:14.761920","MEAN_MOTION":15.29982294,"ECCENTRICITY":0.00086604,"INCLINATION":97.2381,"RA_OF_ASC_NODE":112.457,"ARG_OF_PERICENTER":185.709,"MEAN_ANOMALY":174.4054,"EPHEMERIS_TYPE":0,"CLASSIFICATION_TYPE":"U","NORAD_CAT_ID":47437,"ELEMENT_SET_NO":999,"REV_AT_EPOCH":28414,"BSTAR":0.0002197941,"MEAN_MOTION_DOT":6.312e-5,"MEAN_MOTION_DDOT":0}]
